<?xml version="1.0" encoding="UTF-8"?>
<ndm xmlns:xsi="http://www.w3.org/2001/XMLSchema-instance" xsi:noNamespaceSchemaLocation="https://sanaregistry.org/r/ndmxml_unqualified/ndmxml-2.0.0-master-2.0.xsd">
<omm id="CCSDS_OMM_VERS" version="2.0">
<header><CREATION_DATE/><ORIGINATOR/></header><body><segment><metadata><OBJECT_NAME>KUIPER-00071</OBJECT_NAME><OBJECT_ID>2025-151C</OBJECT_ID><CENTER_NAME>EARTH</CENTER_NAME><REF_FRAME>TEME</REF_FRAME><TIME_SYSTEM>UTC</TIME_SYSTEM><MEAN_ELEMENT_THEORY>SGP4</MEAN_ELEMENT_THEORY></metadata><data><meanElements><EPOCH>2025-12-28T09:53:09.257280</EPOCH><MEAN_MOTION>14.79946791</MEAN_MOTION><ECCENTRICITY>.0007423</ECCENTRICITY><INCLINATION>51.9000</INCLINATION><RA_OF_ASC_NODE>258.2673</RA_OF_ASC_NODE><ARG_OF_PERICENTER>3.7503</ARG_OF_PERICENTER><MEAN_ANOMALY>356.3514</MEAN_ANOMALY></meanElements><tleParameters><EPHEMERIS_TYPE>0</EPHEMERIS_TYPE><CLASSIFICATION_TYPE>U</CLASSIFICATION_TYPE><NORAD_CAT_ID>64818</NORAD_CAT_ID><ELEMENT_SET_NO>999</ELEMENT_SET_NO><REV_AT_EPOCH>2471</REV_AT_EPOCH><BSTAR>.91994E-3</BSTAR><MEAN_MOTION_DOT>.6802E-4</MEAN_MOTION_DOT><MEAN_MOTION_DDOT>0</MEAN_MOTION_DDOT></tleParameters></data></segment></body></omm>
<omm id="CCSDS_OMM_VERS" version="2.0">
<header><CREATION_DATE/><ORIGINATOR/></header><body><segment><metadata><OBJECT_NAME>KUIPER-00072</OBJECT_NAME><OBJECT_ID>2025-151D</OBJECT_ID><CENTER_NAME>EARTH</CENTER_NAME><REF_FRAME>TEME</REF_FRAME><TIME_SYSTEM>UTC</TIME_SYSTEM><MEAN_ELEMENT_THEORY>SGP4</MEAN_ELEMENT_THEORY></metadata><data><meanElements><EPOCH>2025-12-28T01:20:35.712096</EPOCH><MEAN_MOTION>14.76769782</MEAN_MOTION><ECCENTRICITY>.00026121</ECCENTRICITY><INCLINATION>51.8977</INCLINATION><RA_OF_ASC_NODE>239.7822</RA_OF_ASC_NODE><ARG_OF_PERICENTER>13.9580</ARG_OF_PERICENTER><MEAN_ANOMALY>346.1452</MEAN_ANOMALY></meanElements><tleParameters><EPHEMERIS_TYPE>0</EPHEMERIS_TYPE><CLASSIFICATION_TYPE>U</CLASSIFICATION_TYPE><NORAD_CAT_ID>64819</NORAD_CAT_ID><ELEMENT_SET_NO>999</ELEMENT_SET_NO><REV_AT_EPOCH>2494</REV_AT_EPOCH><BSTAR>.42853587E-3</BSTAR><MEAN_MOTION_DOT>.2817E-4</MEAN_MOTION_DOT><MEAN_MOTION_DDOT>0</MEAN_MOTION_DDOT></tleParameters></data></segment></body></omm>
<omm id="CCSDS_OMM_VERS" version="2.0">
<header><CREATION_DATE/><ORIGINATOR/></header><body><segment><metadata><OBJECT_NAME>KUIPER-00073</OBJECT_NAME><OBJECT_ID>2025-151E</OBJECT_ID><CENTER_NAME>EARTH</CENTER_NAME><REF_FRAME>TEME</REF_FRAME><TIME_SYSTEM>UTC</TIME_SYSTEM><MEAN_ELEMENT_THEORY>SGP4</MEAN_ELEMENT_THEORY></metadata><data><meanElements><EPOCH>2025-12-28T10:41:54.326688</EPOCH><MEAN_MOTION>14.79951439</MEAN_MOTION><ECCENTRICITY>.0013476</ECCENTRICITY><INCLINATION>51.8997</INCLINATION><RA_OF_ASC_NODE>258.1136</RA_OF_ASC_NODE><ARG_OF_PERICENTER>22.3391</ARG_OF_PERICENTER><MEAN_ANOMALY>337.8156</MEAN_ANOMALY></meanElements><tleParameters><EPHEMERIS_TYPE>0</EPHEMERIS_TYPE><CLASSIFICATION_TYPE>U</CLASSIFICATION_TYPE><NORAD_CAT_ID>64820</NORAD_CAT_ID><ELEMENT_SET_NO>999</ELEMENT_SET_NO><REV_AT_EPOCH>2590</REV_AT_EPOCH><BSTAR>.93207E-3</BSTAR><MEAN_MOTION_DOT>.6902E-4</MEAN_MOTION_DOT><MEAN_MOTION_DDOT>0</MEAN_MOTION_DDOT></tleParameters></data></segment></body></omm>
<omm id="CCSDS_OMM_VERS" version="2.0">
<header><CREATION_DATE/><ORIGINATOR/></header><body><segment><metadata><OBJECT_NAME>KUIPER-00074</OBJECT_NAME><OBJECT_ID>2025-151F</OBJECT_ID><CENTER_NAME>EARTH</CENTER_NAME><REF_FRAME>TEME</REF_FRAME><TIME_SYSTEM>UTC</TIME_SYSTEM><MEAN_ELEMENT_THEORY>SGP4</MEAN_ELEMENT_THEORY></metadata><data><meanElements><EPOCH>2025-12-28T09:24:08.609184</EPOCH><MEAN_MOTION>14.79920841</MEAN_MOTION><ECCENTRICITY>.0013856</ECCENTRICITY><INCLINATION>51.9016</INCLINATION><RA_OF_ASC_NODE>245.8693</RA_OF_ASC_NODE><ARG_OF_PERICENTER>38.3287</ARG_OF_PERICENTER><MEAN_ANOMALY>321.8658</MEAN_ANOMALY></meanElements><tleParameters><EPHEMERIS_TYPE>0</EPHEMERIS_TYPE><CLASSIFICATION_TYPE>U</CLASSIFICATION_TYPE><NORAD_CAT_ID>64821</NORAD_CAT_ID><ELEMENT_SET_NO>999</ELEMENT_SET_NO><REV_AT_EPOCH>2488</REV_AT_EPOCH><BSTAR>-.43155E-3</BSTAR><MEAN_MOTION_DOT>-.3518E-4</MEAN_MOTION_DOT><MEAN_MOTION_DDOT>0</MEAN_MOTION_DDOT></tleParameters></data></segment></body></omm>
<omm id="CCSDS_OMM_VERS" version="2.0">
<header><CREATION_DATE/><ORIGINATOR/></header><body><segment><metadata><OBJECT_NAME>KUIPER-00075</OBJECT_NAME><OBJECT_ID>2025-151G</OBJECT_ID><CENTER_NAME>EARTH</CENTER_NAME><REF_FRAME>TEME</REF_FRAME><TIME_SYSTEM>UTC</TIME_SYSTEM><MEAN_ELEMENT_THEORY>SGP4</MEAN_ELEMENT_THEORY></metadata><data><meanElements><EPOCH>2025-12-28T06:50:57.855840</EPOCH><MEAN_MOTION>15.40051193</MEAN_MOTION><ECCENTRICITY>.0004074</ECCENTRICITY><INCLINATION>51.8727</INCLINATION><RA_OF_ASC_NODE>208.6871</RA_OF_ASC_NODE><ARG_OF_PERICENTER>46.7797</ARG_OF_PERICENTER><MEAN_ANOMALY>313.3530</MEAN_ANOMALY></meanElements><tleParameters><EPHEMERIS_TYPE>0</EPHEMERIS_TYPE><CLASSIFICATION_TYPE>U</CLASSIFICATION_TYPE><NORAD_CAT_ID>64822</NORAD_CAT_ID><ELEMENT_SET_NO>999</ELEMENT_SET_NO><REV_AT_EPOCH>2539</REV_AT_EPOCH><BSTAR>.16863E-2</BSTAR><MEAN_MOTION_DOT>.68712E-3</MEAN_MOTION_DOT><MEAN_MOTION_DDOT>0</MEAN_MOTION_DDOT></tleParameters></data></segment></body></omm>
<omm id="CCSDS_OMM_VERS" version="2.0">
<header><CREATION_DATE/><ORIGINATOR/></header><body><segment><metadata><OBJECT_NAME>KUIPER-00076</OBJECT_NAME><OBJECT_ID>2025-151H</OBJECT_ID><CENTER_NAME>EARTH</CENTER_NAME><REF_FRAME>TEME</REF_FRAME><TIME_SYSTEM>UTC</TIME_SYSTEM><MEAN_ELEMENT_THEORY>SGP4</MEAN_ELEMENT_THEORY></metadata><data><meanElements><EPOCH>2025-12-28T01:13:56.050752</EPOCH><MEAN_MOTION>14.79961987</MEAN_MOTION><ECCENTRICITY>.00056808</ECCENTRICITY><INCLINATION>51.9001</INCLINATION><RA_OF_ASC_NODE>249.8686</RA_OF_ASC_NODE><ARG_OF_PERICENTER>38.2932</ARG_OF_PERICENTER><MEAN_ANOMALY>321.8433</MEAN_ANOMALY></meanElements><tleParameters><EPHEMERIS_TYPE>0</EPHEMERIS_TYPE><CLASSIFICATION_TYPE>U</CLASSIFICATION_TYPE><NORAD_CAT_ID>64823</NORAD_CAT_ID><ELEMENT_SET_NO>999</ELEMENT_SET_NO><REV_AT_EPOCH>2480</REV_AT_EPOCH><BSTAR>.75317537E-3</BSTAR><MEAN_MOTION_DOT>.5529E-4</MEAN_MOTION_DOT><MEAN_MOTION_DDOT>0</MEAN_MOTION_DDOT></tleParameters></data></segment></body></omm>
<omm id="CCSDS_OMM_VERS" version="2.0">
<header><CREATION_DATE/><ORIGINATOR/></header><body><segment><metadata><OBJECT_NAME>KUIPER-00077</OBJECT_NAME><OBJECT_ID>2025-151J</OBJECT_ID><CENTER_NAME>EARTH</CENTER_NAME><REF_FRAME>TEME</REF_FRAME><TIME_SYSTEM>UTC</TIME_SYSTEM><MEAN_ELEMENT_THEORY>SGP4</MEAN_ELEMENT_THEORY></metadata><data><meanElements><EPOCH>2025-12-28T12:26:51.830880</EPOCH><MEAN_MOTION>14.79955139</MEAN_MOTION><ECCENTRICITY>.0006192</ECCENTRICITY><INCLINATION>51.9003</INCLINATION><RA_OF_ASC_NODE>252.8087</RA_OF_ASC_NODE><ARG_OF_PERICENTER>2.9913</ARG_OF_PERICENTER><MEAN_ANOMALY>357.1085</MEAN_ANOMALY></meanElements><tleParameters><EPHEMERIS_TYPE>0</EPHEMERIS_TYPE><CLASSIFICATION_TYPE>U</CLASSIFICATION_TYPE><NORAD_CAT_ID>64824</NORAD_CAT_ID><ELEMENT_SET_NO>999</ELEMENT_SET_NO><REV_AT_EPOCH>2480</REV_AT_EPOCH><BSTAR>.83856E-3</BSTAR><MEAN_MOTION_DOT>.6181E-4</MEAN_MOTION_DOT><MEAN_MOTION_DDOT>0</MEAN_MOTION_DDOT></tleParameters></data></segment></body></omm>
<omm id="CCSDS_OMM_VERS" version="2.0">
<header><CREATION_DATE/><ORIGINATOR/></header><body><segment><metadata><OBJECT_NAME>KUIPER-00078</OBJECT_NAME><OBJECT_ID>2025-151K</OBJECT_ID><CENTER_NAME>EARTH</CENTER_NAME><REF_FRAME>TEME</REF_FRAME><TIME_SYSTEM>UTC</TIME_SYSTEM><MEAN_ELEMENT_THEORY>SGP4</MEAN_ELEMENT_THEORY></metadata><data><meanElements><EPOCH>2025-12-28T10:05:01.311648</EPOCH><MEAN_MOTION>14.79901482</MEAN_MOTION><ECCENTRICITY>.0008789</ECCENTRICITY><INCLINATION>51.9000</INCLINATION><RA_OF_ASC_NODE>250.7378</RA_OF_ASC_NODE><ARG_OF_PERICENTER>56.4271</ARG_OF_PERICENTER><MEAN_ANOMALY>303.7530</MEAN_ANOMALY></meanElements><tleParameters><EPHEMERIS_TYPE>0</EPHEMERIS_TYPE><CLASSIFICATION_TYPE>U</CLASSIFICATION_TYPE><NORAD_CAT_ID>64825</NORAD_CAT_ID><ELEMENT_SET_NO>999</ELEMENT_SET_NO><REV_AT_EPOCH>2482</REV_AT_EPOCH><BSTAR>-.59918E-3</BSTAR><MEAN_MOTION_DOT>-.4788E-4</MEAN_MOTION_DOT><MEAN_MOTION_DDOT>0</MEAN_MOTION_DDOT></tleParameters></data></segment></body></omm>

</ndm>
