KUIPER-00071            
1 64818U 25151C   25362.41191270  .00006802  00000+0  91994-3 0  9994
2 64818  51.9000 258.2673 0007423   3.7503 356.3514 14.79946791 24719
KUIPER-00072            
1 64819U 25151D   25362.05596889  .00002817  00000+0  42854-3 0  9993
2 64819  51.8977 239.7822 0002612  13.9580 346.1452 14.76769782 24948
KUIPER-00073            
1 64820U 25151E   25362.44576767  .00006902  00000+0  93207-3 0  9998
2 64820  51.8997 258.1136 0013476  22.3391 337.8156 14.79951439 25909
KUIPER-00074            
1 64821U 25151F   25362.39176631 -.00003518  00000+0 -43155-3 0  9998
2 64821  51.9016 245.8693 0013856  38.3287 321.8658 14.79920841 24886
KUIPER-00075            
1 64822U 25151G   25362.28539185  .00068712  00000+0  16863-2 0  9994
2 64822  51.8727 208.6871 0004074  46.7797 313.3530 15.40051193 25397
KUIPER-00076            
1 64823U 25151H   25362.05134318  .00005529  00000+0  75318-3 0  9997
2 64823  51.9001 249.8686 0005680  38.2932 321.8433 14.79961987 24809
KUIPER-00077            
1 64824U 25151J   25362.51865545  .00006181  00000+0  83856-3 0  9993
2 64824  51.9003 252.8087 0006192   2.9913 357.1085 14.79955139 24804
KUIPER-00078            
1 64825U 25151K   25362.42015407 -.00004788  00000+0 -59918-3 0  9993
2 64825  51.9000 250.7378 0008789  56.4271 303.7530 14.79901482 24823
